H1 CPF 01  gfz 2021 03 20 13  5792 terrasarx 
H2 0702601  6201 31698    2021 03 20 12 59 42 2021 03 25 00 00 42   120 1 1  0 0 0
H9
10 0 59296  19422.000000  0   -4574021.393  -1415200.777  -4960121.666
10 0 59296  19542.000000  0   -5210168.764  -1385056.123  -4296164.490
10 0 59296  19662.000000  0   -5754845.059  -1320481.804  -3556933.162
10 0 59296  19782.000000  0   -6197887.030  -1224265.380  -2755312.796
10 0 59296  19902.000000  0   -6530943.731  -1099911.930  -1905314.658
10 0 59296  20022.000000  0   -6747646.132   -951552.239  -1021832.849
10 0 59296  20142.000000  0   -6843740.920   -783836.457   -120380.660
10 0 59296  20262.000000  0   -6817182.450   -601814.355    783188.216
10 0 59296  20382.000000  0   -6668180.945   -410807.195   1672966.016
10 0 59296  20502.000000  0   -6399205.531   -216274.039   2533280.203
10 0 59296  20622.000000  0   -6014941.413    -23675.224   3348978.420
10 0 59296  20742.000000  0   -5522201.916    161663.262   4105702.924
10 0 59296  20862.000000  0   -4929798.263    334680.378   4790147.685
10 0 59296  20982.000000  0   -4248371.423    490702.678   5390292.981
10 0 59296  21102.000000  0   -3490191.514    625556.748   5895614.098
10 0 59296  21222.000000  0   -2668927.998    735667.952   6297262.345
10 0 59296  21342.000000  0   -1799396.155    818143.646   6588214.698
10 0 59296  21462.000000  0    -897284.318    870840.557   6763390.767
10 0 59296  21582.000000  0      21131.350    892413.834   6819734.763
10 0 59296  21702.000000  0     939279.911    882347.235   6756264.843
10 0 59296  21822.000000  0    1840593.272    840964.586   6574089.171
10 0 59296  21942.000000  0    2708803.956    769421.942   6276387.970
10 0 59296  22062.000000  0    3528238.918    669680.417   5868362.358
10 0 59296  22182.000000  0    4284105.148    544460.252   5357148.514
10 0 59296  22302.000000  0    4962760.589    397176.724   4751698.944
10 0 59296  22422.000000  0    5551967.357    231858.245   4062632.352
10 0 59296  22542.000000  0    6041122.435     53050.080   3302051.551
10 0 59296  22662.000000  0    6421459.152   -134294.795   2483331.708
10 0 59296  22782.000000  0    6686213.312   -324936.860   1620882.983
10 0 59296  22902.000000  0    6830751.914   -513479.979    729893.377
10 0 59296  23022.000000  0    6852660.716   -694504.871   -173945.548
10 0 59296  23142.000000  0    6751786.915   -862704.935  -1074724.521
10 0 59296  23262.000000  0    6530234.893  -1013020.152  -1956605.486
10 0 59296  23382.000000  0    6192316.935  -1140765.309  -2804108.027
10 0 59296  23502.000000  0    5744460.055  -1241749.635  -3602386.218
10 0 59296  23622.000000  0    5195072.390  -1312384.595  -4337490.701
10 0 59296  23742.000000  0    4554373.158  -1349777.057  -4996610.477
10 0 59296  23862.000000  0    3834191.607  -1351806.716  -5568290.938
10 0 59296  23982.000000  0    3047738.725  -1317186.517  -6042624.680
10 0 59296  24102.000000  0    2209358.438  -1245503.962  -6411412.077
10 0 59296  24222.000000  0    1334263.692  -1137242.463  -6668292.167
10 0 59296  24342.000000  0     438261.189   -993784.330  -6808841.730
10 0 59296  24462.000000  0    -462530.137   -817394.671  -6830643.365
10 0 59296  24582.000000  0   -1351962.597   -611186.132  -6733322.095
10 0 59296  24702.000000  0   -2214142.814   -379065.136  -6518551.454
10 0 59296  24822.000000  0   -3033709.374   -125660.186  -6190026.572
10 0 59296  24942.000000  0   -3796100.456    143766.278  -5753407.662
10 0 59296  25062.000000  0   -4487811.732    423422.086  -5216233.367
10 0 59296  25182.000000  0   -5096637.613    707103.198  -4587801.443
10 0 59296  25302.000000  0   -5611893.392    988324.166  -3879020.397
10 0 59296  25422.000000  0   -6024613.049   1260459.606  -3102229.578
10 0 59296  25542.000000  0   -6327716.938   1516892.424  -2270990.959
10 0 59296  25662.000000  0   -6516145.860   1751165.510  -1399855.657
10 0 59296  25782.000000  0   -6586957.944   1957134.277   -504108.374
10 0 59296  25902.000000  0   -6539383.701   2129114.959    400506.358
10 0 59296  26022.000000  0   -6374836.899   2262025.065   1298068.277
10 0 59296  26142.000000  0   -6096881.999   2351513.387   2172769.977
10 0 59296  26262.000000  0   -5711157.666   2394075.319   3009204.539
10 0 59296  26382.000000  0   -5225258.871   2387149.813   3792644.969
10 0 59296  26502.000000  0   -4648579.976   2329195.569   4509309.311
10 0 59296  26622.000000  0   -3992124.348   2219745.564   5146604.773
10 0 59296  26742.000000  0   -3268286.415   2059438.750   5693348.026
10 0 59296  26862.000000  0   -2490610.077   1850028.863   6139959.285
10 0 59296  26982.000000  0   -1673527.660   1594369.033   6478625.512
10 0 59296  27102.000000  0    -832086.835   1296372.933   6703430.496
10 0 59296  27222.000000  0      18328.319    960954.005   6810450.789
10 0 59296  27342.000000  0     862277.838    593943.744   6797819.545
10 0 59296  27462.000000  0    1684544.992    201990.406   6665756.849
10 0 59296  27582.000000  0    2470409.244   -207560.572   6416566.475
10 0 59296  27702.000000  0    3205909.607   -626803.403   6054599.525
10 0 59296  27822.000000  0    3878094.939  -1047422.993   5586183.338
10 0 59296  27942.000000  0    4475255.922  -1460858.658   5019516.472
10 0 59296  28062.000000  0    4987134.263  -1858477.320   4364531.249
10 0 59296  28182.000000  0    5405107.188  -2231752.343   3632725.260
10 0 59296  28302.000000  0    5722342.042  -2572445.457   2836961.654
10 0 59296  28422.000000  0    5933915.204  -2872786.970   1991242.034
10 0 59296  28542.000000  0    6036894.332  -3125649.532   1110457.741
10 0 59296  28662.000000  0    6030382.153  -3324712.323    210121.546
10 0 59296  28782.000000  0    5915517.721  -3464609.584   -693913.579
10 0 59296  28902.000000  0    5695437.553  -3541061.038  -1585743.167
10 0 59296  29022.000000  0    5375194.380  -3550978.903  -2449699.884
10 0 59296  29142.000000  0    4961639.443  -3492551.014  -3270634.649
10 0 59296  29262.000000  0    4463270.281  -3365297.460  -4034186.133
10 0 59296  29382.000000  0    3890048.408  -3170100.070  -4727031.980
10 0 59296  29502.000000  0    3253191.651  -2909203.395  -5337117.687
10 0 59296  29622.000000  0    2564947.674  -2586188.395  -5853857.852
10 0 59296  29742.000000  0    1838355.272  -2205921.814  -6268309.375
10 0 59296  29862.000000  0    1086996.140  -1774480.606  -6573317.063
10 0 59296  29982.000000  0     324741.058  -1299051.698  -6763626.524
10 0 59296  30102.000000  0    -434502.725   -787812.003  -6835964.526
10 0 59296  30222.000000  0   -1177039.467   -249789.783  -6789088.384
10 0 59296  30342.000000  0   -1889626.324    305291.173  -6623804.860
10 0 59296  30462.000000  0   -2559704.076    867182.826  -6342956.953
10 0 59296  30582.000000  0   -3175613.584   1425297.002  -5951380.395
10 0 59296  30702.000000  0   -3726796.601   1968900.090  -5455830.036
10 0 59296  30822.000000  0   -4203979.311   2487316.208  -4864875.312
10 0 59296  30942.000000  0   -4599333.562   2970135.795  -4188762.657
10 0 59296  31062.000000  0   -4906611.577   3407424.160  -3439247.533
10 0 59296  31182.000000  0   -5121252.905   3789927.166  -2629399.144
10 0 59296  31302.000000  0   -5240459.873   4109269.273  -1773377.131
10 0 59296  31422.000000  0   -5263239.510   4358138.274   -886185.502
10 0 59296  31542.000000  0   -5190410.314   4530452.582     16593.271
10 0 59296  31662.000000  0   -5024572.268   4621506.640    919078.354
10 0 59296  31782.000000  0   -4770039.860   4628088.477   1805379.341
10 0 59296  31902.000000  0   -4432739.855   4548566.994   2659885.431
10 0 59296  32022.000000  0   -4020076.312   4382947.626   3467548.565
10 0 59296  32142.000000  0   -3540767.280   4132894.335   4214154.677
10 0 59296  32262.000000  0   -3004658.046   3801717.686   4886577.456
10 0 59296  32382.000000  0   -2422514.840   3394329.713   5473010.604
10 0 59296  32502.000000  0   -1805803.763   2917166.709   5963173.179
10 0 59296  32622.000000  0   -1166460.597   2378082.229   6348485.308
10 0 59296  32742.000000  0    -516656.978   1786212.426   6622211.050
10 0 59296  32862.000000  0     131430.744   1151818.426   6779569.645
10 0 59296  32982.000000  0     765849.610    486106.571   6817814.232
10 0 59296  33102.000000  0    1375089.526   -198969.269   6736276.148
10 0 59296  33222.000000  0    1948290.990   -890921.441   6536376.686
10 0 59296  33342.000000  0    2475438.271  -1576955.599   6221604.128
10 0 59296  33462.000000  0    2947535.595  -2244206.528   5797457.809
10 0 59296  33582.000000  0    3356763.522  -2879980.430   5271357.381
10 0 59296  33702.000000  0    3696611.786  -3471998.312   4652519.119
10 0 59296  33822.000000  0    3961987.178  -4008636.777   3951799.964
10 0 59296  33942.000000  0    4149293.728  -4479161.182   3181510.391
10 0 59296  34062.000000  0    4256482.890  -4873945.949   2355199.204
10 0 59296  34182.000000  0    4283072.911  -5184676.482   1487412.957
10 0 59296  34302.000000  0    4230135.778  -5404527.279    593434.639
10 0 59296  34422.000000  0    4100251.733  -5528311.135   -310992.553
10 0 59296  34542.000000  0    3897434.397  -5552597.322  -1209950.071
10 0 59296  34662.000000  0    3627025.616  -5475794.523  -2087634.008
10 0 59296  34782.000000  0    3295564.111  -5298195.401  -2928640.058
10 0 59296  34902.000000  0    2910632.165  -5021983.587  -3718239.584
10 0 59296  35022.000000  0    2480682.830  -4651202.484  -4442639.643
10 0 59296  35142.000000  0    2014853.255  -4191687.772  -5089221.833
10 0 59296  35262.000000  0    1522770.171  -3650965.404  -5646755.544
10 0 59296  35382.000000  0    1014351.883  -3038119.953  -6105583.349
10 0 59296  35502.000000  0     499609.584  -2363636.318  -6457777.820
10 0 59296  35622.000000  0     -11547.633  -1639216.488  -6697267.662
10 0 59296  35742.000000  0    -509499.498   -877575.431  -6819931.893
10 0 59296  35862.000000  0    -985090.407    -92220.051  -6823662.871
99
